CTC1_L_00338016-03
1 65534U 26892QE  26070.40835648  .00000000  00000+0  00000-0 0  9992
2 65534  50.0000 180.0000 0000000   0.0000   0.0000 13.81096544    11
CTC1_L_00338016-04
1 65535U 26978X   26070.40835648  .00000000  00000+0  00000-0 0  9998
2 65535  50.0000 180.0000 0000000   0.0000  90.0000 13.81096544    11
CTC1_L_00338017-01
1 65536U 26939S   26070.40835648  .00000000  00000+0  00000-0 0  9996
2 65536  50.0000 192.0000 0000000   0.0000 192.0000 13.81096544    18
CTC1_L_00338017-02
1 65537U 26268FN  26070.40835648  .00000000  00000+0  00000-0 0  9992
2 65537  50.0000 192.0000 0000000   0.0000 282.0000 13.81096544    19
CTC1_L_00338017-03
1 65538U 24436JD  26070.40835648  .00000000  00000+0  00000-0 0  9998
2 65538  50.0000 192.0000 0000000   0.0000  12.0000 13.81096544    11
CTC1_L_00338017-04
1 65539U 23272ZB  26070.40835648  .00000000  00000+0  00000-0 0  9996
2 65539  50.0000 192.0000 0000000   0.0000 102.0000 13.81096544    12
CTC1_L_00338018-01
1 65540U 22332X   26070.40835648  .00000000  00000+0  00000-0 0  9994
2 65540  50.0000 204.0000 0000000   0.0000 204.0000 13.81096544    11
CTC1_L_00338018-02
1 65541U 24988DZ  26070.40835648  .00000000  00000+0  00000-0 0  9994
2 65541  50.0000 204.0000 0000000   0.0000 294.0000 13.81096544    11
CTC1_L_00338018-03
1 65542U 24813EK  26070.40835648  .00000000  00000+0  00000-0 0  9992
2 65542  50.0000 204.0000 0000000   0.0000  24.0000 13.81096544    13
CTC1_L_00338018-04
1 65543U 25019IW  26070.40835648  .00000000  00000+0  00000-0 0  9992
2 65543  50.0000 204.0000 0000000   0.0000 114.0000 13.81096544    14
CTC1_L_00338019-01
1 65544U 23473IV  26070.40835648  .00000000  00000+0  00000-0 0  9995
2 65544  50.0000 216.0000 0000000   0.0000 216.0000 13.81096544    11
CTC1_L_00338019-02
1 65545U 22774SR  26070.40835648  .00000000  00000+0  00000-0 0  9999
2 65545  50.0000 216.0000 0000000   0.0000 306.0000 13.81096544    12
CTC1_L_00338019-03
1 65546U 26087FB  26070.40835648  .00000000  00000+0  00000-0 0  9991
2 65546  50.0000 216.0000 0000000   0.0000  36.0000 13.81096544    13
CTC1_L_00338019-04
1 65547U 26414QK  26070.40835648  .00000000  00000+0  00000-0 0  9996
2 65547  50.0000 216.0000 0000000   0.0000 126.0000 13.81096544    14
CTC1_L_00338020-01
1 65548U 25421CC  26070.40835648  .00000000  00000+0  00000-0 0  9994
2 65548  50.0000 228.0000 0000000   0.0000 228.0000 13.81096544    11
CTC1_L_00338020-02
1 65549U 26111EB  26070.40835648  .00000000  00000+0  00000-0 0  9992
2 65549  50.0000 228.0000 0000000   0.0000 318.0000 13.81096544    12
CTC1_L_00338020-03
1 65550U 26476LW  26070.40835648  .00000000  00000+0  00000-0 0  9998
2 65550  50.0000 228.0000 0000000   0.0000  48.0000 13.81096544    14
CTC1_L_00338020-04
1 65551U 23329D   26070.40835648  .00000000  00000+0  00000-0 0  9993
2 65551  50.0000 228.0000 0000000   0.0000 138.0000 13.81096544    15
CTC1_L_00338021-01
1 65552U 26380IT  26070.40835648  .00000000  00000+0  00000-0 0  9994
2 65552  50.0000 240.0000 0000000   0.0000 240.0000 13.81096544    14
CTC1_L_00338021-02
1 65553U 23909X   26070.40835648  .00000000  00000+0  00000-0 0  9999
2 65553  50.0000 240.0000 0000000   0.0000 330.0000 13.81096544    15
CTC1_L_00338021-03
1 65554U 25759JW  26070.40835648  .00000000  00000+0  00000-0 0  9995
2 65554  50.0000 240.0000 0000000   0.0000  60.0000 13.81096544    16
CTC1_L_00338021-04
1 65555U 24362IC  26070.40835648  .00000000  00000+0  00000-0 0  9995
2 65555  50.0000 240.0000 0000000   0.0000 150.0000 13.81096544    17
CTC1_L_00338022-01
1 65556U 24890ZB  26070.40835648  .00000000  00000+0  00000-0 0  9992
2 65556  50.0000 252.0000 0000000   0.0000 252.0000 13.81096544    14
CTC1_L_00338022-02
1 65557U 22502GY  26070.40835648  .00000000  00000+0  00000-0 0  9991
2 65557  50.0000 252.0000 0000000   0.0000 342.0000 13.81096544    15
CTC1_L_00338022-03
1 65558U 23414RU  26070.40835648  .00000000  00000+0  00000-0 0  9995
2 65558  50.0000 252.0000 0000000   0.0000  72.0000 13.81096544    16
CTC1_L_00338022-04
1 65559U 26683XA  26070.40835648  .00000000  00000+0  00000-0 0  9997
2 65559  50.0000 252.0000 0000000   0.0000 162.0000 13.81096544    17
CTC1_L_00338023-01
1 65560U 24409MW  26070.40835648  .00000000  00000+0  00000-0 0  9993
2 65560  50.0000 264.0000 0000000   0.0000 264.0000 13.81096544    15
CTC1_L_00338023-02
1 65561U 23068DI  26070.40835648  .00000000  00000+0  00000-0 0  9994
2 65561  50.0000 264.0000 0000000   0.0000 354.0000 13.81096544    16
CTC1_L_00338023-03
1 65562U 24841NA  26070.40835648  .00000000  00000+0  00000-0 0  9995
2 65562  50.0000 264.0000 0000000   0.0000  84.0000 13.81096544    17
CTC1_L_00338023-04
1 65563U 24824LV  26070.40835648  .00000000  00000+0  00000-0 0  9997
2 65563  50.0000 264.0000 0000000   0.0000 174.0000 13.81096544    18
CTC1_L_00338024-01
1 65564U 25788OY  26070.40835648  .00000000  00000+0  00000-0 0  9998
2 65564  50.0000 276.0000 0000000   0.0000 276.0000 13.81096544    15
CTC1_L_00338024-02
1 65565U 26820VN  26070.40835648  .00000000  00000+0  00000-0 0  9997
2 65565  50.0000 276.0000 0000000   0.0000   6.0000 13.81096544    17
CTC1_L_00338024-03
1 65566U 24527LS  26070.40835648  .00000000  00000+0  00000-0 0  9990
2 65566  50.0000 276.0000 0000000   0.0000  96.0000 13.81096544    17
CTC1_L_00338024-04
1 65567U 26406IU  26070.40835648  .00000000  00000+0  00000-0 0  9999
2 65567  50.0000 276.0000 0000000   0.0000 186.0000 13.81096544    18
CTC1_L_00338025-01
1 65568U 22886TY  26070.40835648  .00000000  00000+0  00000-0 0  9998
2 65568  50.0000 288.0000 0000000   0.0000 288.0000 13.81096544    15
CTC1_L_00338025-02
1 65569U 22541GY  26070.40835648  .00000000  00000+0  00000-0 0  9997
2 65569  50.0000 288.0000 0000000   0.0000  18.0000 13.81096544    17
CTC1_L_00338025-03
1 65570U 25369JZ  26070.40835648  .00000000  00000+0  00000-0 0  9990
2 65570  50.0000 288.0000 0000000   0.0000 108.0000 13.81096544    19
CTC1_L_00338025-04
1 65571U 22498NW  26070.40835648  .00000000  00000+0  00000-0 0  9991
2 65571  50.0000 288.0000 0000000   0.0000 198.0000 13.81096544    19
CTC1_L_00338026-01
1 65572U 24110HU  26070.40835648  .00000000  00000+0  00000-0 0  9995
2 65572  50.0000 300.0000 0000000   0.0000 300.0000 13.81096544    10
CTC1_L_00338026-02
1 65573U 26250ZV  26070.40835648  .00000000  00000+0  00000-0 0  9993
2 65573  50.0000 300.0000 0000000   0.0000  30.0000 13.81096544    11
CTC1_L_00338026-03
1 65574U 24114FF  26070.40835648  .00000000  00000+0  00000-0 0  9991
2 65574  50.0000 300.0000 0000000   0.0000 120.0000 13.81096544    12
CTC1_L_00338026-04
1 65575U 22910T   26070.40835648  .00000000  00000+0  00000-0 0  9994
2 65575  50.0000 300.0000 0000000   0.0000 210.0000 13.81096544    13
CTC1_L_00338027-01
1 65576U 24519HX  26070.40835648  .00000000  00000+0  00000-0 0  9992
2 65576  50.0000 312.0000 0000000   0.0000 312.0000 13.81096544    10
CTC1_L_00338027-02
1 65577U 24754CV  26070.40835648  .00000000  00000+0  00000-0 0  9994
2 65577  50.0000 312.0000 0000000   0.0000  42.0000 13.81096544    11
CTC1_L_00338027-03
1 65578U 23357JB  26070.40835648  .00000000  00000+0  00000-0 0  9993
2 65578  50.0000 312.0000 0000000   0.0000 132.0000 13.81096544    12
CTC1_L_00338027-04
1 65579U 24074BO  26070.40835648  .00000000  00000+0  00000-0 0  9991
2 65579  50.0000 312.0000 0000000   0.0000 222.0000 13.81096544    13
CTC1_L_00338028-01
1 65580U 22856OD  26070.40835648  .00000000  00000+0  00000-0 0  9999
2 65580  50.0000 324.0000 0000000   0.0000 324.0000 13.81096544    11
CTC1_L_00338028-02
1 65581U 24010TM  26070.40835648  .00000000  00000+0  00000-0 0  9994
2 65581  50.0000 324.0000 0000000   0.0000  54.0000 13.81096544    12
CTC1_L_00338028-03
1 65582U 25906X   26070.40835648  .00000000  00000+0  00000-0 0  9990
2 65582  50.0000 324.0000 0000000   0.0000 144.0000 13.81096544    13
CTC1_L_00338028-04
1 65583U 24371WR  26070.40835648  .00000000  00000+0  00000-0 0  9996
2 65583  50.0000 324.0000 0000000   0.0000 234.0000 13.81096544    14
CTC1_L_00338029-01
1 65584U 26308JM  26070.40835648  .00000000  00000+0  00000-0 0  9999
2 65584  50.0000 336.0000 0000000   0.0000 336.0000 13.81096544    11
CTC1_L_00338029-02
1 65585U 23182LF  26070.40835648  .00000000  00000+0  00000-0 0  9997
2 65585  50.0000 336.0000 0000000   0.0000  66.0000 13.81096544    12
CTC1_L_00338029-03
1 65586U 22672LN  26070.40835648  .00000000  00000+0  00000-0 0  9991
2 65586  50.0000 336.0000 0000000   0.0000 156.0000 13.81096544    13
CTC1_L_00338029-04
1 65587U 25152BW  26070.40835648  .00000000  00000+0  00000-0 0  9998
2 65587  50.0000 336.0000 0000000   0.0000 246.0000 13.81096544    14
CTC1_L_00338030-01
1 65588U 22306GR  26070.40835648  .00000000  00000+0  00000-0 0  9997
2 65588  50.0000 348.0000 0000000   0.0000 348.0000 13.81096544    11
CTC1_L_00338030-02
1 65589U 22221JV  26070.40835648  .00000000  00000+0  00000-0 0  9994
2 65589  50.0000 348.0000 0000000   0.0000  78.0000 13.81096544    12
CTC1_L_00338030-03
1 65590U 24276IT  26070.40835648  .00000000  00000+0  00000-0 0  9998
2 65590  50.0000 348.0000 0000000   0.0000 168.0000 13.81096544    14
CTC1_L_00338030-04
1 65591U 24743ZZ  26070.40835648  .00000000  00000+0  00000-0 0  9998
2 65591  50.0000 348.0000 0000000   0.0000 258.0000 13.81096544    15
